{
  "norad_id": 61928,
  "name": "STARLINK-32620",
  "history": [
    {
      "epoch": "2026-03-28T22:10:12.734400Z",
      "apogee_km": 483.4296941759303,
      "perigee_km": 482.5473534335679,
      "latitude_deg": 1.219985811353564e-06,
      "longitude_deg": 14.22630744043635,
      "height_km": 482.9085328405134,
      "semi_major_axis_km": 6861.125523804749,
      "eccentricity": 6.43e-05,
      "inclination_deg": 42.9995,
      "raan_deg": 173.1166,
      "arg_perigee_deg": 250.9377,
      "mean_anomaly_deg": 109.1405,
      "mean_motion_rev_day": 15.27600229
    }
  ]
}