{"fetched_at":"2026-03-30T13:17:50Z","count":15418,"tles":[{"name":"STARLINK-32620","line1":"1 61928U 24207S   26087.92375850  .00018136  00000+0  66653-3 0  9990","line2":"2 61928  42.9995 173.1166 0000643 250.9377 109.1405 15.27600229 77667","category":"Starlink"}]}